NORAD_CAT_ID,OBJECT_NAME,OBJECT_TYPE,EPOCH,MEAN_MOTION,ECCENTRICITY,INCLINATION,RA_OF_ASC_NODE,ARG_OF_PERICENTER,MEAN_ANOMALY,BSTAR,MEAN_MOTION_DOT,MEAN_MOTION_DDOT,TLE_LINE0,TLE_LINE1,TLE_LINE2,SEMIMAJOR_AXIS,PERIOD,APOGEE,PERIGEE,DECAYED
49426.0,STARLINK-3114,PAYLOAD,2024-01-19 12:09:58,15.08843652,0.0001847,53.2172,131.4969,65.6124,294.506,9.3303e-05,1.197e-05,0.0,0 STARLINK-3114,1 49426U 21104U   24019.50692463  .00001197  00000-0  93303-4 0  9994,2 49426  53.2172 131.4969 0001847  65.6124 294.5060 15.08843652121938,6917.869,95.437,541.012,538.456,0.0
49426.0,STARLINK-3114,PAYLOAD,2024-01-19 13:45:21,15.08845072,0.0001685,53.2176,131.2045,70.7487,289.3687,8.7275e-05,1.101e-05,0.0,0 STARLINK-3114,1 49426U 21104U   24019.57316315  .00001101  00000-0  87275-4 0  9996,2 49426  53.2176 131.2045 0001685  70.7487 289.3687 15.08845072120859,6917.865,95.437,540.896,538.564,0.0
49426.0,STARLINK-3114,PAYLOAD,2024-01-20 12:00:45,15.08843524,0.0001358,53.2167,127.0402,109.7685,250.3453,-6.177e-05,-1.271e-05,0.0,0 STARLINK-3114,1 49426U 21104U   24020.50052478 -.00001271  00000-0 -61770-4 0  9990,2 49426  53.2167 127.0402 0001358 109.7685 250.3453 15.08843524122085,6917.87,95.437,540.674,538.795,0.0
49426.0,STARLINK-3114,PAYLOAD,2024-01-20 13:36:08,15.08845616,0.0001366,53.218,126.7409,92.7565,267.3583,-4.8469e-05,-1.059e-05,0.0,0 STARLINK-3114,1 49426U 21104U   24020.56676326 -.00001059  00000-0 -48469-4 0  9994,2 49426  53.2180 126.7409 0001366  92.7565 267.3583 15.08845616121007,6917.863,95.437,540.673,538.783,0.0
49426.0,STARLINK-3114,PAYLOAD,2024-01-21 07:05:22,15.08845785,0.0001645,53.2177,123.4693,112.3451,247.7716,2.1673e-06,-2.54e-06,0.0,0 STARLINK-3114,1 49426U 21104U   24021.29540156 -.00000254  00000-0  21673-5 0  9990,2 49426  53.2177 123.4693 0001645 112.3451 247.7716 15.08845785121114,6917.863,95.437,540.866,538.59,0.0
49426.0,STARLINK-3114,PAYLOAD,2024-01-21 13:26:55,15.0883755,0.0001051,53.2176,122.2832,90.1276,269.9836,1.7059e-05,-1.6e-07,0.0,0 STARLINK-3114,1 49426U 21104U   24021.56036789 -.00000016  00000-0  17059-4 0  9990,2 49426  53.2176 122.2832 0001051  90.1276 269.9836 15.08837550122249,6917.888,95.438,540.48,539.026,0.0
49426.0,STARLINK-3114,PAYLOAD,2024-01-22 06:56:10,15.08825125,9.85e-05,53.2174,119.0132,84.9913,275.1192,0.00012585,1.715e-05,0.0,0 STARLINK-3114,1 49426U 21104U   24022.28901310  .00001715  00000-0  12585-3 0  9995,2 49426  53.2174 119.0132 0000985  84.9913 275.1192 15.08825125121268,6917.926,95.438,540.472,539.109,0.0
49426.0,STARLINK-3114,PAYLOAD,2024-01-22 13:17:42,15.08845091,0.0001008,53.2164,117.8179,95.0122,265.0985,0.00011787,1.589e-05,0.0,0 STARLINK-3114,1 49426U 21104U   24022.55396175  .00001589  00000-0  11787-3 0  9994,2 49426  53.2164 117.8179 0001008  95.0122 265.0985 15.08845091122393,6917.865,95.437,540.427,539.033,0.0
49426.0,STARLINK-3114,PAYLOAD,2024-01-23 11:33:06,15.08844408,9.16e-05,53.2175,113.6542,80.454,279.6556,6.4022e-05,7.31e-06,0.0,0 STARLINK-3114,1 49426U 21104U   24023.48132362  .00000731  00000-0  64022-4 0  9992,2 49426  53.2175 113.6542 0000916  80.4540 279.6556 15.08844408122534,6917.867,95.437,540.366,539.098,0.0
49426.0,STARLINK-3114,PAYLOAD,2024-01-23 13:08:29,15.0884725,0.0001124,53.2177,113.3552,94.8395,265.2725,8.2506e-05,1.026e-05,0.0,0 STARLINK-3114,1 49426U 21104U   24023.54756154  .00001026  00000-0  82506-4 0  9995,2 49426  53.2177 113.3552 0001124  94.8395 265.2725 15.08847250121450,6917.858,95.437,540.501,538.946,0.0
49426.0,STARLINK-3114,PAYLOAD,2024-01-24 11:23:54,15.08837855,0.0001287,53.2171,109.1933,122.3091,237.8026,-1.26e-05,-4.88e-06,0.0,0 STARLINK-3114,1 49426U 21104U   24024.47493291 -.00000488  00000-0 -12600-4 0  9999,2 49426  53.2171 109.1933 0001287 122.3091 237.8026 15.08837855122685,6917.887,95.438,540.642,538.862,0.0
49426.0,STARLINK-3114,PAYLOAD,2024-01-24 12:59:17,15.08835002,0.0001358,53.218,108.8966,83.8762,276.2385,5.9381e-05,6.57e-06,0.0,0 STARLINK-3114,1 49426U 21104U   24024.54117421  .00000657  00000-0  59381-4 0  9998,2 49426  53.2180 108.8966 0001358  83.8762 276.2385 15.08835002121600,6917.896,95.438,540.7,538.821,0.0
49426.0,STARLINK-3114,PAYLOAD,2024-01-25 12:50:04,15.08848371,0.0001431,53.2178,104.4366,73.3475,286.7674,4.4179e-05,4.15e-06,0.0,0 STARLINK-3114,1 49426U 21104U   24025.53476882  .00000415  00000-0  44179-4 0  9998,2 49426  53.2178 104.4366 0001431  73.3475 286.7674 15.08848371121756,6917.855,95.437,540.71,538.73,0.0
49426.0,STARLINK-3114,PAYLOAD,2024-01-26 11:05:27,15.08847221,0.0001877,53.2183,100.2702,60.7524,299.3655,0.00014546,2.028e-05,0.0,0 STARLINK-3114,1 49426U 21104U   24026.46212881  .00002028  00000-0  14546-3 0  9994,2 49426  53.2183 100.2702 0001877  60.7524 299.3655 15.08847221121896,6917.858,95.437,541.022,538.425,0.0
49426.0,STARLINK-3114,PAYLOAD,2024-01-27 10:56:15,15.08842674,0.0001554,53.2172,95.8189,103.743,256.3735,-2.3479e-05,-6.62e-06,0.0,0 STARLINK-3114,1 49426U 21104U   24027.45573369 -.00000662  00000-0 -23479-4 0  9995,2 49426  53.2172  95.8189 0001554 103.7430 256.3735 15.08842674123136,6917.872,95.437,540.812,538.662,0.0
49426.0,STARLINK-3114,PAYLOAD,2024-01-28 13:57:48,15.08854715,0.0001646,53.2177,90.7563,88.31,271.8081,-9.7782e-05,-1.845e-05,0.0,0 STARLINK-3114,1 49426U 21104U   24028.58180766 -.00001845  00000-0 -97782-4 0  9997,2 49426  53.2177  90.7563 0001646  88.3100 271.8081 15.08854715122218,6917.835,95.437,540.839,538.562,0.0
49426.0,STARLINK-3114,PAYLOAD,2024-01-29 04:16:16,15.08837935,0.0001583,53.2176,88.0793,87.6086,272.5088,7.7033e-05,9.38e-06,0.0,0 STARLINK-3114,1 49426U 21104U   24029.17797379  .00000938  00000-0  77033-4 0  9994,2 49426  53.2176  88.0793 0001583  87.6086 272.5088 15.08837935123397,6917.887,95.438,540.847,538.657,0.0
49426.0,STARLINK-3114,PAYLOAD,2024-01-29 10:37:49,15.088445,0.0001647,53.2176,86.8901,81.2538,278.864,0.00013182,1.811e-05,0.0,0 STARLINK-3114,1 49426U 21104U   24029.44292879  .00001811  00000-0  13182-3 0  9994,2 49426  53.2176  86.8901 0001647  81.2538 278.8640 15.08844500123431,6917.867,95.437,540.871,538.592,0.0
49426.0,STARLINK-3114,PAYLOAD,2024-01-30 10:28:36,15.08838129,0.0001633,53.2183,82.4338,96.7551,263.3627,-3.4733e-05,-8.41e-06,0.0,0 STARLINK-3114,1 49426U 21104U   24030.43653826 -.00000841  00000-0 -34733-4 0  9998,2 49426  53.2183  82.4338 0001633  96.7551 263.3627 15.08838129123586,6917.886,95.438,540.881,538.621,0.0
49426.0,STARLINK-3114,PAYLOAD,2024-01-31 11:54:46,15.0885206,0.0001643,53.2184,77.6711,85.0845,275.0335,-0.00015545,-2.762e-05,0.0,0 STARLINK-3114,1 49426U 21104U   24031.49637512 -.00002762  00000-0 -15545-3 0  9992,2 49426  53.2184  77.6711 0001643  85.0845 275.0335 15.08852060123740,6917.844,95.437,540.845,538.572,0.0
49426.0,STARLINK-3114,PAYLOAD,2024-02-01 11:45:35,15.08799074,0.0001942,53.2191,73.2105,79.1084,281.0126,0.00056073,8.637e-05,0.0,0 STARLINK-3114,1 49426U 21104U   24032.48999089  .00008637  00000-0  56073-3 0  9998,2 49426  53.2191  73.2105 0001942  79.1084 281.0126 15.08799074123894,6918.005,95.44,541.214,538.527,0.0
49426.0,STARLINK-3114,PAYLOAD,2024-02-02 11:36:20,15.08847175,0.0001831,53.2187,68.7486,71.5323,288.5868,0.00012007,1.624e-05,0.0,0 STARLINK-3114,1 49426U 21104U   24033.48357519  .00001624  00000-0  12007-3 0  9993,2 49426  53.2187  68.7486 0001831  71.5323 288.5868 15.08847175124048,6917.858,95.437,540.99,538.457,0.0
49426.0,STARLINK-3114,PAYLOAD,2024-02-03 08:16:22,15.08840672,0.000205,53.2194,64.8785,64.1683,295.9521,2.7602e-05,1.51e-06,0.0,0 STARLINK-3114,1 49426U 21104U   24034.34470253  .00000151  00000-0  27602-4 0  9992,2 49426  53.2194  64.8785 0002050  64.1683 295.9521 15.08840672123082,6917.878,95.438,541.161,538.325,0.0
49426.0,STARLINK-3114,PAYLOAD,2024-02-03 19:24:04,15.08841649,0.0001507,53.2176,62.8057,86.0789,274.0375,5.5923e-06,-1.99e-06,0.0,0 STARLINK-3114,1 49426U 21104U   24034.80838047 -.00000199  00000-0  55923-5 0  9993,2 49426  53.2176  62.8057 0001507  86.0789 274.0375 15.08841649124247,6917.875,95.437,540.783,538.698,0.0
49426.0,STARLINK-3114,PAYLOAD,2024-02-04 08:07:09,15.08847676,0.0001506,53.2179,60.4275,88.5673,271.5492,-5.5759e-05,-1.175e-05,0.0,0 STARLINK-3114,1 49426U 21104U   24035.33829887 -.00001175  00000-0 -55759-4 0  9996,2 49426  53.2179  60.4275 0001506  88.5673 271.5492 15.08847676123230,6917.857,95.437,540.764,538.68,0.0
49426.0,STARLINK-3114,PAYLOAD,2024-02-05 04:47:09,15.08840125,0.0001542,53.2176,56.563,83.9868,276.13,5.6391e-05,6.1e-06,0.0,0 STARLINK-3114,1 49426U 21104U   24036.19941930  .00000610  00000-0  56391-4 0  9999,2 49426  53.2176  56.5630 0001542  83.9868 276.1300 15.08840125124459,6917.88,95.438,540.812,538.678,0.0
49426.0,STARLINK-3114,PAYLOAD,2024-02-05 07:57:55,15.08842869,0.0001474,53.2178,55.9663,97.5974,262.5186,8.8117e-05,1.115e-05,0.0,0 STARLINK-3114,1 49426U 21104U   24036.33189597  .00001115  00000-0  88117-4 0  9990,2 49426  53.2178  55.9663 0001474  97.5974 262.5186 15.08842869123382,6917.872,95.437,540.756,538.717,0.0
49426.0,STARLINK-3114,PAYLOAD,2024-02-06 07:48:43,15.08842272,0.0001616,53.2182,51.5083,102.481,257.6363,7.3991e-05,8.9e-06,0.0,0 STARLINK-3114,1 49426U 21104U   24037.32549818  .00000890  00000-0  73991-4 0  9999,2 49426  53.2182  51.5083 0001616 102.4810 257.6363 15.08842272124626,6917.873,95.437,540.856,538.621,0.0
49426.0,STARLINK-3114,PAYLOAD,2024-02-07 04:28:44,15.08834534,0.000168,53.2183,47.6428,107.5646,252.553,-1.2812e-05,-4.92e-06,0.0,0 STARLINK-3114,1 49426U 21104U   24038.18662734 -.00000492  00000-0 -12812-4 0  9992,2 49426  53.2183  47.6428 0001680 107.5646 252.5530 15.08834534124756,6917.897,95.438,540.924,538.6,0.0
49426.0,STARLINK-3114,PAYLOAD,2024-02-07 07:39:30,15.08835539,0.0001574,53.2175,47.0475,104.2434,255.8733,-8.2984e-06,-4.2e-06,0.0,0 STARLINK-3114,1 49426U 21104U   24038.31910693 -.00000420  00000-0 -82984-5 0  9996,2 49426  53.2175  47.0475 0001574 104.2434 255.8733 15.08835539123682,6917.894,95.438,540.848,538.67,0.0
